[{"OBJECT_NAME":"STARLINK-3286","OBJECT_ID":"2021-125R","EPOCH":"2025-09-11T06:33:15.770016","MEAN_MOTION":15.08835093,"ECCENTRICITY":0.00012439,"INCLINATION":53.2186,"RA_OF_ASC_NODE":334.5565,"ARG_OF_PERICENTER":89.9312,"MEAN_ANOMALY":270.1823,"EPHEMERIS_TYPE":0,"CLASSIFICATION_TYPE":"U","NORAD_CAT_ID":50171,"ELEMENT_SET_NO":999,"REV_AT_EPOCH":20951,"BSTAR":8.452778e-5,"MEAN_MOTION_DOT":1.057e-5,"MEAN_MOTION_DDOT":0},{"OBJECT_NAME":"STARLINK-3287","OBJECT_ID":"2021-125S","EPOCH":"2025-09-11T06:01:28.012224","MEAN_MOTION":15.0882796,"ECCENTRICITY":0.00010845,"INCLINATION":53.2185,"RA_OF_ASC_NODE":334.6566,"ARG_OF_PERICENTER":97.6436,"MEAN_ANOMALY":262.4679,"EPHEMERIS_TYPE":0,"CLASSIFICATION_TYPE":"U","NORAD_CAT_ID":50172,"ELEMENT_SET_NO":999,"REV_AT_EPOCH":20954,"BSTAR":2.9760981e-5,"MEAN_MOTION_DOT":1.86e-6,"MEAN_MOTION_DDOT":0},{"OBJECT_NAME":"STARLINK-3289","OBJECT_ID":"2021-125T","EPOCH":"2025-09-11T05:15:06.048864","MEAN_MOTION":15.08841118,"ECCENTRICITY":0.00011935,"INCLINATION":53.2192,"RA_OF_ASC_NODE":324.8661,"ARG_OF_PERICENTER":75.6754,"MEAN_ANOMALY":284.437,"EPHEMERIS_TYPE":0,"CLASSIFICATION_TYPE":"U","NORAD_CAT_ID":50173,"ELEMENT_SET_NO":999,"REV_AT_EPOCH":20965,"BSTAR":-2.1064103e-5,"MEAN_MOTION_DOT":-6.23e-6,"MEAN_MOTION_DDOT":0},{"OBJECT_NAME":"STARLINK-3292","OBJECT_ID":"2021-125U","EPOCH":"2025-09-10T22:51:43.243776","MEAN_MOTION":15.0884074,"ECCENTRICITY":0.00014804,"INCLINATION":53.2191,"RA_OF_ASC_NODE":331.6058,"ARG_OF_PERICENTER":80.2607,"MEAN_ANOMALY":279.8553,"EPHEMERIS_TYPE":0,"CLASSIFICATION_TYPE":"U","NORAD_CAT_ID":50174,"ELEMENT_SET_NO":999,"REV_AT_EPOCH":20957,"BSTAR":6.1119259e-5,"MEAN_MOTION_DOT":6.85e-6,"MEAN_MOTION_DDOT":0},{"OBJECT_NAME":"STARLINK-3291","OBJECT_ID":"2021-125V","EPOCH":"2025-09-10T22:20:25.823616","MEAN_MOTION":15.08839651,"ECCENTRICITY":0.00010674,"INCLINATION":53.2194,"RA_OF_ASC_NODE":336.0923,"ARG_OF_PERICENTER":95.9655,"MEAN_ANOMALY":264.1459,"EPHEMERIS_TYPE":0,"CLASSIFICATION_TYPE":"U","NORAD_CAT_ID":50175,"ELEMENT_SET_NO":999,"REV_AT_EPOCH":20946,"BSTAR":5.8325826e-5,"MEAN_MOTION_DOT":6.41e-6,"MEAN_MOTION_DDOT":0},{"OBJECT_NAME":"STARLINK-3293","OBJECT_ID":"2021-125W","EPOCH":"2025-09-11T05:50:51.975168","MEAN_MOTION":15.08835813,"ECCENTRICITY":0.00012129,"INCLINATION":53.2181,"RA_OF_ASC_NODE":334.6866,"ARG_OF_PERICENTER":81.9714,"MEAN_ANOMALY":278.1416,"EPHEMERIS_TYPE":0,"CLASSIFICATION_TYPE":"U","NORAD_CAT_ID":50176,"ELEMENT_SET_NO":999,"REV_AT_EPOCH":20955,"BSTAR":-0.00010484973,"MEAN_MOTION_DOT":-1.956e-5,"MEAN_MOTION_DDOT":0},{"OBJECT_NAME":"STARLINK-3282","OBJECT_ID":"2021-125X","EPOCH":"2025-09-11T06:06:45.809568","MEAN_MOTION":15.08836181,"ECCENTRICITY":0.00012771,"INCLINATION":53.2199,"RA_OF_ASC_NODE":334.6378,"ARG_OF_PERICENTER":80.8148,"MEAN_ANOMALY":279.2989,"EPHEMERIS_TYPE":0,"CLASSIFICATION_TYPE":"U","NORAD_CAT_ID":50177,"ELEMENT_SET_NO":999,"REV_AT_EPOCH":20951,"BSTAR":-7.680543e-6,"MEAN_MOTION_DOT":-4.1e-6,"MEAN_MOTION_DDOT":0},{"OBJECT_NAME":"STARLINK-3284","OBJECT_ID":"2021-125Y","EPOCH":"2025-09-10T16:05:34.031328","MEAN_MOTION":15.08825975,"ECCENTRICITY":0.00011517,"INCLINATION":53.2184,"RA_OF_ASC_NODE":337.1162,"ARG_OF_PERICENTER":84.7125,"MEAN_ANOMALY":275.3998,"EPHEMERIS_TYPE":0,"CLASSIFICATION_TYPE":"U","NORAD_CAT_ID":50178,"ELEMENT_SET_NO":999,"REV_AT_EPOCH":20946,"BSTAR":9.8952784e-5,"MEAN_MOTION_DOT":1.287e-5,"MEAN_MOTION_DDOT":0},{"OBJECT_NAME":"STARLINK-3283","OBJECT_ID":"2021-125Z","EPOCH":"2025-09-10T15:37:41.403360","MEAN_MOTION":15.08838022,"ECCENTRICITY":0.00012823,"INCLINATION":53.2188,"RA_OF_ASC_NODE":337.3462,"ARG_OF_PERICENTER":86.1467,"MEAN_ANOMALY":273.9672,"EPHEMERIS_TYPE":0,"CLASSIFICATION_TYPE":"U","NORAD_CAT_ID":50179,"ELEMENT_SET_NO":999,"REV_AT_EPOCH":20942,"BSTAR":-1.6922286e-5,"MEAN_MOTION_DOT":-5.57e-6,"MEAN_MOTION_DDOT":0},{"OBJECT_NAME":"STARLINK-3265","OBJECT_ID":"2021-125AA","EPOCH":"2025-09-11T05:36:20.496384","MEAN_MOTION":15.08837463,"ECCENTRICITY":0.00017578,"INCLINATION":53.2188,"RA_OF_ASC_NODE":334.7421,"ARG_OF_PERICENTER":88.4541,"MEAN_ANOMALY":271.6652,"EPHEMERIS_TYPE":0,"CLASSIFICATION_TYPE":"U","NORAD_CAT_ID":50180,"ELEMENT_SET_NO":999,"REV_AT_EPOCH":20955,"BSTAR":7.5998864e-5,"MEAN_MOTION_DOT":9.22e-6,"MEAN_MOTION_DDOT":0},{"OBJECT_NAME":"STARLINK-3285","OBJECT_ID":"2021-125AB","EPOCH":"2025-09-10T11:56:30.099840","MEAN_MOTION":15.08841237,"ECCENTRICITY":0.00011996,"INCLINATION":53.2186,"RA_OF_ASC_NODE":338.045,"ARG_OF_PERICENTER":86.7452,"MEAN_ANOMALY":273.3678,"EPHEMERIS_TYPE":0,"CLASSIFICATION_TYPE":"U","NORAD_CAT_ID":50181,"ELEMENT_SET_NO":999,"REV_AT_EPOCH":20940,"BSTAR":9.79269e-5,"MEAN_MOTION_DOT":1.271e-5,"MEAN_MOTION_DDOT":0},{"OBJECT_NAME":"STARLINK-3277","OBJECT_ID":"2021-125AC","EPOCH":"2025-09-11T04:52:32.788128","MEAN_MOTION":15.0883729,"ECCENTRICITY":0.00013876,"INCLINATION":53.2189,"RA_OF_ASC_NODE":334.7174,"ARG_OF_PERICENTER":97.9428,"MEAN_ANOMALY":262.1722,"EPHEMERIS_TYPE":0,"CLASSIFICATION_TYPE":"U","NORAD_CAT_ID":50182,"ELEMENT_SET_NO":999,"REV_AT_EPOCH":20954,"BSTAR":4.1843175e-5,"MEAN_MOTION_DOT":3.78e-6,"MEAN_MOTION_DDOT":0},{"OBJECT_NAME":"STARLINK-3281","OBJECT_ID":"2021-125AD","EPOCH":"2025-09-10T22:57:31.339872","MEAN_MOTION":15.08844144,"ECCENTRICITY":0.00012153,"INCLINATION":53.2188,"RA_OF_ASC_NODE":335.9729,"ARG_OF_PERICENTER":82.2471,"MEAN_ANOMALY":277.8659,"EPHEMERIS_TYPE":0,"CLASSIFICATION_TYPE":"U","NORAD_CAT_ID":50183,"ELEMENT_SET_NO":999,"REV_AT_EPOCH":20951,"BSTAR":5.3544349e-5,"MEAN_MOTION_DOT":5.64e-6,"MEAN_MOTION_DDOT":0},{"OBJECT_NAME":"STARLINK-3279","OBJECT_ID":"2021-125AF","EPOCH":"2025-09-11T05:34:57.123840","MEAN_MOTION":15.08847574,"ECCENTRICITY":0.00027509,"INCLINATION":53.2194,"RA_OF_ASC_NODE":334.7738,"ARG_OF_PERICENTER":86.8141,"MEAN_ANOMALY":273.3166,"EPHEMERIS_TYPE":0,"CLASSIFICATION_TYPE":"U","NORAD_CAT_ID":50185,"ELEMENT_SET_NO":999,"REV_AT_EPOCH":20951,"BSTAR":7.8572441e-5,"MEAN_MOTION_DOT":9.62e-6,"MEAN_MOTION_DDOT":0},{"OBJECT_NAME":"STARLINK-3274","OBJECT_ID":"2021-125AG","EPOCH":"2025-09-11T05:49:32.178720","MEAN_MOTION":15.08841689,"ECCENTRICITY":0.00017167,"INCLINATION":53.219,"RA_OF_ASC_NODE":344.6897,"ARG_OF_PERICENTER":84.2923,"MEAN_ANOMALY":275.8265,"EPHEMERIS_TYPE":0,"CLASSIFICATION_TYPE":"U","NORAD_CAT_ID":50186,"ELEMENT_SET_NO":999,"REV_AT_EPOCH":20936,"BSTAR":0.00011132613,"MEAN_MOTION_DOT":1.484e-5,"MEAN_MOTION_DDOT":0},{"OBJECT_NAME":"STARLINK-3272","OBJECT_ID":"2021-125AH","EPOCH":"2025-09-11T04:53:53.821824","MEAN_MOTION":15.08838067,"ECCENTRICITY":0.00012954,"INCLINATION":53.2179,"RA_OF_ASC_NODE":324.8639,"ARG_OF_PERICENTER":89.4304,"MEAN_ANOMALY":270.6836,"EPHEMERIS_TYPE":0,"CLASSIFICATION_TYPE":"U","NORAD_CAT_ID":50187,"ELEMENT_SET_NO":999,"REV_AT_EPOCH":20962,"BSTAR":6.9666581e-5,"MEAN_MOTION_DOT":8.21e-6,"MEAN_MOTION_DDOT":0}]
