STARLINK-3286           
1 50171U 21125R   25254.27309919  .00001057  00000+0  84528-4 0  9996
2 50171  53.2186 334.5565 0001243  89.9312 270.1823 15.08835093209516
STARLINK-3287           
1 50172U 21125S   25254.25101866  .00000186  00000+0  29761-4 0  9996
2 50172  53.2185 334.6566 0001084  97.6436 262.4679 15.08827960209544
STARLINK-3289           
1 50173U 21125T   25254.21882001 -.00000623  00000+0 -21064-4 0  9996
2 50173  53.2192 324.8661 0001193  75.6754 284.4370 15.08841118209655
STARLINK-3292           
1 50174U 21125U   25253.95258384  .00000685  00000+0  61119-4 0  9999
2 50174  53.2191 331.6058 0001480  80.2607 279.8553 15.08840740209571
STARLINK-3291           
1 50175U 21125V   25253.93085444  .00000641  00000+0  58326-4 0  9991
2 50175  53.2194 336.0923 0001067  95.9655 264.1459 15.08839651209461
STARLINK-3293           
1 50176U 21125W   25254.24365712 -.00001956  00000+0 -10485-3 0  9991
2 50176  53.2181 334.6866 0001212  81.9714 278.1416 15.08835813209555
STARLINK-3282           
1 50177U 21125X   25254.25469687 -.00000410  00000+0 -76805-5 0  9993
2 50177  53.2199 334.6378 0001277  80.8148 279.2989 15.08836181209515
STARLINK-3284           
1 50178U 21125Y   25253.67053277  .00001287  00000+0  98953-4 0  9991
2 50178  53.2184 337.1162 0001151  84.7125 275.3998 15.08825975209468
STARLINK-3283           
1 50179U 21125Z   25253.65117365 -.00000557  00000+0 -16922-4 0  9996
2 50179  53.2188 337.3462 0001282  86.1467 273.9672 15.08838022209424
STARLINK-3265           
1 50180U 21125AA  25254.23357056  .00000922  00000+0  75999-4 0  9999
2 50180  53.2188 334.7421 0001757  88.4541 271.6652 15.08837463209552
STARLINK-3285           
1 50181U 21125AB  25253.49757060  .00001271  00000+0  97927-4 0  9999
2 50181  53.2186 338.0450 0001199  86.7452 273.3678 15.08841237209407
STARLINK-3277           
1 50182U 21125AC  25254.20315727  .00000378  00000+0  41843-4 0  9993
2 50182  53.2189 334.7174 0001387  97.9428 262.1722 15.08837290209548
STARLINK-3281           
1 50183U 21125AD  25253.95661273  .00000564  00000+0  53544-4 0  9993
2 50183  53.2188 335.9729 0001215  82.2471 277.8659 15.08844144209517
STARLINK-3279           
1 50185U 21125AF  25254.23260560  .00000962  00000+0  78572-4 0  9991
2 50185  53.2194 334.7738 0002750  86.8141 273.3166 15.08847574209516
STARLINK-3274           
1 50186U 21125AG  25254.24273355  .00001484  00000+0  11133-3 0  9998
2 50186  53.2190 344.6897 0001716  84.2923 275.8265 15.08841689209361
STARLINK-3272           
1 50187U 21125AH  25254.20409516  .00000821  00000+0  69667-4 0  9995
2 50187  53.2179 324.8639 0001295  89.4304 270.6836 15.08838067209627
